OBJECT_NAME,OBJECT_ID,EPOCH,MEAN_MOTION,ECCENTRICITY,INCLINATION,RA_OF_ASC_NODE,ARG_OF_PERICENTER,MEAN_ANOMALY,EPHEMERIS_TYPE,CLASSIFICATION_TYPE,NORAD_CAT_ID,ELEMENT_SET_NO,REV_AT_EPOCH,BSTAR,MEAN_MOTION_DOT,MEAN_MOTION_DDOT
GALAXY 16 (G-16),2006-023A,2026-06-06T01:01:27.873408,1.00272328,.00028097,0.0234,203.7848,229.0338,98.0158,0,U,29236,999,7286,0,-.114E-5,0
EUTELSAT 33F,2006-032A,2026-06-06T03:38:38.460192,1.00273930,.00035742,1.6324,82.3683,348.6077,271.3610,0,U,29270,999,4719,0,.169E-5,0
JCSAT-3A,2006-033A,2026-06-06T00:23:31.834752,1.00271939,.00022104,0.0177,300.4752,141.2335,306.6174,0,U,29272,999,4762,0,-.332E-5,0
KOREASAT 5 (MUGUNGWHA 5),2006-034A,2026-06-06T00:19:17.241600,1.00273681,.00014277,1.7558,83.1205,31.8825,257.3135,0,U,29349,999,4120,0,-.345E-5,0
DIRECTV 9S,2006-043A,2026-06-06T02:43:22.873152,1.00271855,.00051414,2.3916,81.0353,4.7943,108.3684,0,U,29494,999,5127,0,-.101E-5,0
OPTUS D1,2006-043B,2026-06-05T21:05:01.097952,1.00272343,.00037804,3.0052,79.7949,351.0399,291.7254,0,U,29495,999,7200,0,-.171E-5,0
BADR-4,2006-051A,2026-06-04T17:50:03.090912,1.00450212,.00078927,1.9707,81.2738,161.5231,306.4291,0,U,29526,999,5114,0,.167E-5,0
WILDBLUE-1,2006-054A,2026-06-06T02:40:38.136000,1.00272501,.00016302,2.7739,80.6216,351.9250,110.9386,0,U,29643,999,5368,0,-.36E-6,0
SKYNET 5A,2007-007B,2026-06-05T20:52:21.698976,1.00273261,.0003876,5.2731,73.8761,6.5041,222.2138,0,U,30794,999,7058,0,-.259E-5,0
ANIK F3,2007-009A,2026-06-06T03:13:38.698752,1.00271004,.00027711,1.1681,83.9822,351.3606,108.8986,0,U,31102,999,4645,0,.12E-6,0
ASTRA 1L,2007-016A,2026-06-05T20:14:44.439360,1.00271042,.0005431,1.2919,81.6724,2.8683,88.9256,0,U,31306,999,4487,0,-.172E-5,0
GALAXY 17 (G-17),2007-016B,2026-06-06T04:28:26.798592,1.00272579,.00049192,2.9437,80.0382,13.0395,143.6508,0,U,31307,999,6969,0,-.193E-5,0
INTELSAT 11 (IS-11),2007-044B,2026-06-06T02:19:25.171104,0.99053781,.00017349,3.5360,78.8034,77.3584,307.7476,0,U,32253,999,6834,0,-.177E-5,0
WGS F1 (USA 195),2007-046A,2026-06-05T11:36:11.426976,1.00271527,.00005983,0.0485,93.9114,326.4041,325.1689,0,U,32258,999,5221,0,-.255E-5,0
SKYNET 5B,2007-056B,2026-06-05T20:28:53.404032,1.00274577,.0003762,5.2250,73.6366,357.6363,155.3307,0,U,32294,999,6808,0,.152E-5,0
ASTRA 4A,2007-057A,2026-06-06T03:13:41.236320,1.00274063,.00026063,0.0252,303.0797,138.2549,226.4626,0,U,32299,999,5153,0,.46E-6,0
HORIZONS-2,2007-063B,2026-06-06T04:20:38.904576,1.00273010,.00041257,2.5731,80.7602,353.3080,171.9247,0,U,32388,999,6770,0,-.241E-5,0
THURAYA-3,2008-001A,2026-06-06T03:37:01.498656,1.00009622,.00010494,5.9703,35.7804,148.2329,211.3041,0,U,32404,999,6737,0,-.136E-5,0
THOR 5,2008-006A,2026-06-06T03:12:03.891168,1.00273274,.00027154,0.0447,257.7797,185.2777,218.7642,0,U,32487,999,6720,0,.4E-7,0
AMC-14,2008-011A,2026-06-05T16:13:44.125824,1.00353185,.00458262,23.9919,20.6590,6.6193,172.4980,0,U,32708,999,6805,0,-.14E-6,0
DIRECTV 11,2008-013A,2026-06-05T23:11:54.208032,1.00272158,.00003982,0.0127,221.2849,171.6578,110.2496,0,U,32729,999,4548,0,-.113E-5,0
ICO G1,2008-016A,2026-06-05T14:47:17.589984,1.00272683,.00023425,5.5310,36.1738,23.9554,322.8732,0,U,32763,999,6642,0,-.161E-5,0
VINASAT-1,2008-018A,2026-06-06T00:24:39.226752,1.00273158,.00013611,0.0133,315.8158,121.7005,315.0398,0,U,32767,999,6647,0,-.315E-5,0
STAR ONE C2,2008-018B,2026-06-06T04:12:38.735712,1.00269299,.00029053,1.2123,82.5641,0.8046,169.3836,0,U,32768,999,6654,0,-.263E-5,0
AMOS-3,2008-022A,2026-06-06T03:21:10.518048,1.00470762,.00019072,0.4261,86.4162,59.0336,190.2800,0,U,32794,999,8222,0,.169E-5,0
GALAXY 18 (G-18),2008-024A,2026-06-06T03:13:38.698752,1.00271894,.00032589,0.0175,54.9991,30.8610,94.1005,0,U,32951,999,4574,0,.38E-6,0
ZHONGXING-9,2008-028A,2026-06-05T21:36:21.585312,1.00269615,.000485,0.7398,85.4966,330.8361,254.4515,0,U,33051,999,6592,0,-.236E-5,0
SKYNET 5C,2008-030A,2026-06-06T03:07:19.345728,1.00270967,.00042275,3.7600,77.1709,7.4736,198.9622,0,U,33055,999,6584,0,-.127E-5,0
TURKSAT 3A,2008-030B,2026-06-06T03:30:38.755296,1.00272094,.00053788,0.0698,83.4856,342.7680,282.9577,0,U,33056,999,5224,0,.159E-5,0
INTELSAT 25 (IS-25),2008-034A,2026-06-05T19:14:18.310848,0.99015563,.00017445,2.6787,80.4459,15.9471,258.8671,0,U,33153,999,6557,0,-.191E-5,0
ECHOSTAR 11,2008-035A,2026-06-06T02:41:00.600864,1.00271860,.00025579,0.9757,84.3079,336.8599,123.8247,0,U,33207,999,5110,0,-.45E-6,0
SUPERBIRD-C2,2008-038A,2026-06-06T00:25:46.619616,1.00272947,.0006062,2.3316,81.4010,20.3117,295.1686,0,U,33274,999,10561,0,-.293E-5,0
