GALAXY 16 (G-16)        
1 29236U 06023A   26157.04268372 -.00000114  00000+0  00000+0 0  9991
2 29236   0.0234 203.7848 0002809 229.0338  98.0158  1.00272328 72860
EUTELSAT 33F            
1 29270U 06032A   26157.15183403  .00000169  00000+0  00000+0 0  9991
2 29270   1.6324  82.3683 0003574 348.6077 271.3610  1.00273930 47198
JCSAT-3A                
1 29272U 06033A   26157.01634068 -.00000332  00000+0  00000+0 0  9990
2 29272   0.0177 300.4752 0002210 141.2335 306.6174  1.00271939 47622
KOREASAT 5 (MUGUNGWHA 5)
1 29349U 06034A   26157.01339400 -.00000345  00000+0  00000+0 0  9992
2 29349   1.7558  83.1205 0001427  31.8825 257.3135  1.00273681 41206
DIRECTV 9S              
1 29494U 06043A   26157.11345918 -.00000101  00000+0  00000+0 0  9995
2 29494   2.3916  81.0353 0005141   4.7943 108.3684  1.00271855 51273
OPTUS D1                
1 29495U 06043B   26156.87848493 -.00000171  00000+0  00000+0 0  9991
2 29495   3.0052  79.7949 0003780 351.0399 291.7254  1.00272343 72005
BADR-4                  
1 29526U 06051A   26155.74309133  .00000167  00000+0  00000+0 0  9997
2 29526   1.9707  81.2738 0007892 161.5231 306.4291  1.00450212 51145
WILDBLUE-1              
1 29643U 06054A   26157.11155250 -.00000036  00000+0  00000+0 0  9998
2 29643   2.7739  80.6216 0001630 351.9250 110.9386  1.00272501 53680
SKYNET 5A               
1 30794U 07007B   26156.86969559 -.00000259  00000+0  00000+0 0  9999
2 30794   5.2731  73.8761 0003876   6.5041 222.2138  1.00273261 70587
ANIK F3                 
1 31102U 07009A   26157.13447568  .00000012  00000+0  00000+0 0  9993
2 31102   1.1681  83.9822 0002771 351.3606 108.8986  1.00271004 46453
ASTRA 1L                
1 31306U 07016A   26156.84356990 -.00000172  00000+0  00000+0 0  9990
2 31306   1.2919  81.6724 0005431   2.8683  88.9256  1.00271042 44873
GALAXY 17 (G-17)        
1 31307U 07016B   26157.18642128 -.00000193  00000+0  00000+0 0  9993
2 31307   2.9437  80.0382 0004919  13.0395 143.6508  1.00272579 69696
INTELSAT 11 (IS-11)     
1 32253U 07044B   26157.09681911 -.00000177  00000+0  00000+0 0  9990
2 32253   3.5360  78.8034 0001734  77.3584 307.7476  0.99053781 68340
WGS F1 (USA 195)        
1 32258U 07046A   26156.48346559 -.00000255  00000+0  00000+0 0  9992
2 32258   0.0485  93.9114 0000598 326.4041 325.1689  1.00271527 52217
SKYNET 5B               
1 32294U 07056B   26156.85339588  .00000152  00000+0  00000+0 0  9993
2 32294   5.2250  73.6366 0003762 357.6363 155.3307  1.00274577 68087
ASTRA 4A                
1 32299U 07057A   26157.13450505  .00000046  00000+0  00000+0 0  9996
2 32299   0.0252 303.0797 0002606 138.2549 226.4626  1.00274063 51536
HORIZONS-2              
1 32388U 07063B   26157.18100584 -.00000241  00000+0  00000+0 0  9994
2 32388   2.5731  80.7602 0004125 353.3080 171.9247  1.00273010 67706
THURAYA-3               
1 32404U 08001A   26157.15071179 -.00000136  00000+0  00000+0 0  9993
2 32404   5.9703  35.7804 0001049 148.2329 211.3041  1.00009622 67374
THOR 5                  
1 32487U 08006A   26157.13337837  .00000004  00000+0  00000+0 0  9996
2 32487   0.0447 257.7797 0002715 185.2777 218.7642  1.00273274 67208
AMC-14                  
1 32708U 08011A   26156.67620516 -.00000014  00000+0  00000+0 0  9997
2 32708  23.9919  20.6590 0045826   6.6193 172.4980  1.00353185 68053
DIRECTV 11              
1 32729U 08013A   26156.96659963 -.00000113  00000+0  00000+0 0  9992
2 32729   0.0127 221.2849 0000398 171.6578 110.2496  1.00272158 45488
ICO G1                  
1 32763U 08016A   26156.61617581 -.00000161  00000+0  00000+0 0  9998
2 32763   5.5310  36.1738 0002342  23.9554 322.8732  1.00272683 66428
VINASAT-1               
1 32767U 08018A   26157.01712068 -.00000315  00000+0  00000+0 0  9996
2 32767   0.0133 315.8158 0001361 121.7005 315.0398  1.00273158 66471
STAR ONE C2             
1 32768U 08018B   26157.17544833 -.00000263  00000+0  00000+0 0  9999
2 32768   1.2123  82.5641 0002905   0.8046 169.3836  1.00269299 66542
AMOS-3                  
1 32794U 08022A   26157.13970507  .00000169  00000+0  00000+0 0  9994
2 32794   0.4261  86.4162 0001907  59.0336 190.2800  1.00470762 82221
GALAXY 18 (G-18)        
1 32951U 08024A   26157.13447568  .00000038  00000+0  00000+0 0  9992
2 32951   0.0175  54.9991 0003258  30.8610  94.1005  1.00271894 45749
ZHONGXING-9             
1 33051U 08028A   26156.90024983 -.00000236  00000+0  00000+0 0  9995
2 33051   0.7398  85.4966 0004850 330.8361 254.4515  1.00269615 65928
SKYNET 5C               
1 33055U 08030A   26157.13008502 -.00000127  00000+0  00000+0 0  9996
2 33055   3.7600  77.1709 0004227   7.4736 198.9622  1.00270967 65849
TURKSAT 3A              
1 33056U 08030B   26157.14628189  .00000159  00000+0  00000+0 0  9991
2 33056   0.0698  83.4856 0005378 342.7680 282.9577  1.00272094 52247
INTELSAT 25 (IS-25)     
1 33153U 08034A   26156.80160082 -.00000191  00000+0  00000+0 0  9995
2 33153   2.6787  80.4459 0001744  15.9471 258.8671  0.99015563 65578
ECHOSTAR 11             
1 33207U 08035A   26157.11181251 -.00000045  00000+0  00000+0 0  9990
2 33207   0.9757  84.3079 0002557 336.8599 123.8247  1.00271860 51107
SUPERBIRD-C2            
1 33274U 08038A   26157.01790069 -.00000293  00000+0  00000+0 0  9994
2 33274   2.3316  81.4010 0006062  20.3117 295.1686  1.00272947105610
